ONEWEB-0572             
1 55151U 23004M   25272.83046860  .00000110  00000+0  25050-3 0  9995
2 55151  87.9078  57.6449 0001813  99.7241 260.4095 13.17650643133197
ONEWEB-0573             
1 55152U 23004N   25272.78206163  .00000048  00000+0  90234-4 0  9991
2 55152  87.9197  27.2119 0002520 108.7231 251.4175 13.18684692135376
ONEWEB-0588             
1 55153U 23004P   25272.69958032 -.00000022  00000+0 -89093-4 0  9996
2 55153  87.9205  27.2169 0002179  97.6545 262.4834 13.18687234135364
ONEWEB-0598             
1 55154U 23004Q   25272.53049242  .00000222  00000+0  59062-3 0  9996
2 55154  87.8787  72.9982 0001678 110.4706 249.6602 13.11414244131734
ONEWEB-0599             
1 55155U 23004R   25271.88041474  .00000030  00000+0  42986-4 0  9998
2 55155  87.9075  57.8375 0001518 100.7908 259.3395 13.17650260133075
ONEWEB-0614             
1 55156U 23004S   25272.83059075  .00000461  00000+0  12646-2 0  9997
2 55156  87.8788  72.9480 0001902  81.7299 278.4044 13.11413888131718
ONEWEB-0616             
1 55157U 23004T   25272.83384303  .00000106  00000+0  24056-3 0  9998
2 55157  87.9075  57.6384 0000656 109.4426 250.6776 13.17648189133410
ONEWEB-0617             
1 55158U 23004U   25272.81873266  .00000722  00000+0  20023-2 0  9991
2 55158  87.8790  72.9291 0001987  88.5221 271.6134 13.11417104131738
ONEWEB-0618             
1 55159U 23004V   25272.54978664  .00002976  00000+0  32471-3 0  9994
2 55159  86.9033 283.0805 0014574 170.6000 189.5501 14.87518116142926
ONEWEB-0619             
1 55160U 23004W   25272.78996959 -.00000007  00000+0 -51236-4 0  9995
2 55160  87.9076  57.6216 0001553  73.9179 286.2123 13.17649282133300
ONEWEB-0620             
1 55161U 23004X   25272.81364419  .00000510  00000+0  14038-2 0  9994
2 55161  87.8786  72.9512 0001768  93.9809 266.1521 13.11417965131703
ONEWEB-0621             
1 55162U 23004Y   25272.00149477 -.00000088  00000+0 -28291-3 0  9990
2 55162  87.8798  73.0748 0001673  78.2654 281.8662 13.11414145131571
ONEWEB-0622             
1 55163U 23004Z   25271.85398842 -.00000328  00000+0 -96099-3 0  9993
2 55163  87.8783  73.1220 0002390  86.6908 273.4494 13.11415605131543
ONEWEB-0623             
1 55164U 23004AA  25272.78489766  .00000110  00000+0  24994-3 0  9995
2 55164  87.9070  57.6770 0002197  76.5904 283.5473 13.17651308133291
ONEWEB-0624             
1 55165U 23004AB  25272.78768560 -.00000124  00000+0 -37639-3 0  9995
2 55165  87.8924  42.3709 0001752  90.8114 269.3216 13.12915959133905
ONEWEB-0625             
1 55166U 23004AC  25271.86354698  .00000096  00000+0  21497-3 0  9998
2 55166  87.9065  57.8575 0001466  93.9591 266.1708 13.17649800133163
ONEWEB-0626             
1 55167U 23004AD  25271.85342919  .00000099  00000+0  22167-3 0  9999
2 55167  87.9067  57.8585 0001809 110.8110 249.3216 13.17648847133161
