[{"OBJECT_NAME":"ONEWEB-0572","OBJECT_ID":"2023-004M","EPOCH":"2025-09-29T19:55:52.487040","MEAN_MOTION":13.17650643,"ECCENTRICITY":0.0001813,"INCLINATION":87.9078,"RA_OF_ASC_NODE":57.6449,"ARG_OF_PERICENTER":99.7241,"MEAN_ANOMALY":260.4095,"EPHEMERIS_TYPE":0,"CLASSIFICATION_TYPE":"U","NORAD_CAT_ID":55151,"ELEMENT_SET_NO":999,"REV_AT_EPOCH":13319,"BSTAR":0.0002505,"MEAN_MOTION_DOT":1.1e-6,"MEAN_MOTION_DDOT":0},{"OBJECT_NAME":"ONEWEB-0573","OBJECT_ID":"2023-004N","EPOCH":"2025-09-29T18:46:10.124832","MEAN_MOTION":13.18684692,"ECCENTRICITY":0.000252,"INCLINATION":87.9197,"RA_OF_ASC_NODE":27.2119,"ARG_OF_PERICENTER":108.7231,"MEAN_ANOMALY":251.4175,"EPHEMERIS_TYPE":0,"CLASSIFICATION_TYPE":"U","NORAD_CAT_ID":55152,"ELEMENT_SET_NO":999,"REV_AT_EPOCH":13537,"BSTAR":9.0234e-5,"MEAN_MOTION_DOT":4.8e-7,"MEAN_MOTION_DDOT":0},{"OBJECT_NAME":"ONEWEB-0588","OBJECT_ID":"2023-004P","EPOCH":"2025-09-29T16:47:23.739648","MEAN_MOTION":13.18687234,"ECCENTRICITY":0.0002179,"INCLINATION":87.9205,"RA_OF_ASC_NODE":27.2169,"ARG_OF_PERICENTER":97.6545,"MEAN_ANOMALY":262.4834,"EPHEMERIS_TYPE":0,"CLASSIFICATION_TYPE":"U","NORAD_CAT_ID":55153,"ELEMENT_SET_NO":999,"REV_AT_EPOCH":13536,"BSTAR":-8.9093e-5,"MEAN_MOTION_DOT":-2.2e-7,"MEAN_MOTION_DDOT":0},{"OBJECT_NAME":"ONEWEB-0598","OBJECT_ID":"2023-004Q","EPOCH":"2025-09-29T12:43:54.545088","MEAN_MOTION":13.11414244,"ECCENTRICITY":0.0001678,"INCLINATION":87.8787,"RA_OF_ASC_NODE":72.9982,"ARG_OF_PERICENTER":110.4706,"MEAN_ANOMALY":249.6602,"EPHEMERIS_TYPE":0,"CLASSIFICATION_TYPE":"U","NORAD_CAT_ID":55154,"ELEMENT_SET_NO":999,"REV_AT_EPOCH":13173,"BSTAR":0.00059062,"MEAN_MOTION_DOT":2.22e-6,"MEAN_MOTION_DDOT":0},{"OBJECT_NAME":"ONEWEB-0599","OBJECT_ID":"2023-004R","EPOCH":"2025-09-28T21:07:47.833536","MEAN_MOTION":13.1765026,"ECCENTRICITY":0.00015183,"INCLINATION":87.9075,"RA_OF_ASC_NODE":57.8375,"ARG_OF_PERICENTER":100.7908,"MEAN_ANOMALY":259.3395,"EPHEMERIS_TYPE":0,"CLASSIFICATION_TYPE":"U","NORAD_CAT_ID":55155,"ELEMENT_SET_NO":999,"REV_AT_EPOCH":13307,"BSTAR":4.2985991e-5,"MEAN_MOTION_DOT":3.0e-7,"MEAN_MOTION_DDOT":0},{"OBJECT_NAME":"ONEWEB-0614","OBJECT_ID":"2023-004S","EPOCH":"2025-09-29T19:56:03.040800","MEAN_MOTION":13.11413888,"ECCENTRICITY":0.0001902,"INCLINATION":87.8788,"RA_OF_ASC_NODE":72.948,"ARG_OF_PERICENTER":81.7299,"MEAN_ANOMALY":278.4044,"EPHEMERIS_TYPE":0,"CLASSIFICATION_TYPE":"U","NORAD_CAT_ID":55156,"ELEMENT_SET_NO":999,"REV_AT_EPOCH":13171,"BSTAR":0.0012646,"MEAN_MOTION_DOT":4.61e-6,"MEAN_MOTION_DDOT":0},{"OBJECT_NAME":"ONEWEB-0616","OBJECT_ID":"2023-004T","EPOCH":"2025-09-29T20:00:44.037792","MEAN_MOTION":13.17648189,"ECCENTRICITY":6.56e-5,"INCLINATION":87.9075,"RA_OF_ASC_NODE":57.6384,"ARG_OF_PERICENTER":109.4426,"MEAN_ANOMALY":250.6776,"EPHEMERIS_TYPE":0,"CLASSIFICATION_TYPE":"U","NORAD_CAT_ID":55157,"ELEMENT_SET_NO":999,"REV_AT_EPOCH":13341,"BSTAR":0.00024056,"MEAN_MOTION_DOT":1.06e-6,"MEAN_MOTION_DDOT":0},{"OBJECT_NAME":"ONEWEB-0617","OBJECT_ID":"2023-004U","EPOCH":"2025-09-29T19:38:58.501824","MEAN_MOTION":13.11417104,"ECCENTRICITY":0.0001987,"INCLINATION":87.879,"RA_OF_ASC_NODE":72.9291,"ARG_OF_PERICENTER":88.5221,"MEAN_ANOMALY":271.6134,"EPHEMERIS_TYPE":0,"CLASSIFICATION_TYPE":"U","NORAD_CAT_ID":55158,"ELEMENT_SET_NO":999,"REV_AT_EPOCH":13173,"BSTAR":0.0020023,"MEAN_MOTION_DOT":7.22e-6,"MEAN_MOTION_DDOT":0},{"OBJECT_NAME":"ONEWEB-0618","OBJECT_ID":"2023-004V","EPOCH":"2025-09-29T13:11:41.565696","MEAN_MOTION":14.87518116,"ECCENTRICITY":0.0014574,"INCLINATION":86.9033,"RA_OF_ASC_NODE":283.0805,"ARG_OF_PERICENTER":170.6,"MEAN_ANOMALY":189.5501,"EPHEMERIS_TYPE":0,"CLASSIFICATION_TYPE":"U","NORAD_CAT_ID":55159,"ELEMENT_SET_NO":999,"REV_AT_EPOCH":14292,"BSTAR":0.00032471,"MEAN_MOTION_DOT":2.976e-5,"MEAN_MOTION_DDOT":0},{"OBJECT_NAME":"ONEWEB-0619","OBJECT_ID":"2023-004W","EPOCH":"2025-09-29T18:57:33.372576","MEAN_MOTION":13.17649282,"ECCENTRICITY":0.0001553,"INCLINATION":87.9076,"RA_OF_ASC_NODE":57.6216,"ARG_OF_PERICENTER":73.9179,"MEAN_ANOMALY":286.2123,"EPHEMERIS_TYPE":0,"CLASSIFICATION_TYPE":"U","NORAD_CAT_ID":55160,"ELEMENT_SET_NO":999,"REV_AT_EPOCH":13330,"BSTAR":-5.1236e-5,"MEAN_MOTION_DOT":-7.0e-8,"MEAN_MOTION_DDOT":0},{"OBJECT_NAME":"ONEWEB-0620","OBJECT_ID":"2023-004X","EPOCH":"2025-09-29T19:31:38.858016","MEAN_MOTION":13.11417965,"ECCENTRICITY":0.0001768,"INCLINATION":87.8786,"RA_OF_ASC_NODE":72.9512,"ARG_OF_PERICENTER":93.9809,"MEAN_ANOMALY":266.1521,"EPHEMERIS_TYPE":0,"CLASSIFICATION_TYPE":"U","NORAD_CAT_ID":55161,"ELEMENT_SET_NO":999,"REV_AT_EPOCH":13170,"BSTAR":0.0014038,"MEAN_MOTION_DOT":5.1e-6,"MEAN_MOTION_DDOT":0},{"OBJECT_NAME":"ONEWEB-0621","OBJECT_ID":"2023-004Y","EPOCH":"2025-09-29T00:02:09.148128","MEAN_MOTION":13.11414145,"ECCENTRICITY":0.00016732,"INCLINATION":87.8798,"RA_OF_ASC_NODE":73.0748,"ARG_OF_PERICENTER":78.2654,"MEAN_ANOMALY":281.8662,"EPHEMERIS_TYPE":0,"CLASSIFICATION_TYPE":"U","NORAD_CAT_ID":55162,"ELEMENT_SET_NO":999,"REV_AT_EPOCH":13157,"BSTAR":-0.00028291482,"MEAN_MOTION_DOT":-8.8e-7,"MEAN_MOTION_DDOT":0},{"OBJECT_NAME":"ONEWEB-0622","OBJECT_ID":"2023-004Z","EPOCH":"2025-09-28T20:29:44.599488","MEAN_MOTION":13.11415605,"ECCENTRICITY":0.00023901,"INCLINATION":87.8783,"RA_OF_ASC_NODE":73.122,"ARG_OF_PERICENTER":86.6908,"MEAN_ANOMALY":273.4494,"EPHEMERIS_TYPE":0,"CLASSIFICATION_TYPE":"U","NORAD_CAT_ID":55163,"ELEMENT_SET_NO":999,"REV_AT_EPOCH":13154,"BSTAR":-0.00096098643,"MEAN_MOTION_DOT":-3.28e-6,"MEAN_MOTION_DDOT":0},{"OBJECT_NAME":"ONEWEB-0623","OBJECT_ID":"2023-004AA","EPOCH":"2025-09-29T18:50:15.157824","MEAN_MOTION":13.17651308,"ECCENTRICITY":0.0002197,"INCLINATION":87.907,"RA_OF_ASC_NODE":57.677,"ARG_OF_PERICENTER":76.5904,"MEAN_ANOMALY":283.5473,"EPHEMERIS_TYPE":0,"CLASSIFICATION_TYPE":"U","NORAD_CAT_ID":55164,"ELEMENT_SET_NO":999,"REV_AT_EPOCH":13329,"BSTAR":0.00024994,"MEAN_MOTION_DOT":1.1e-6,"MEAN_MOTION_DDOT":0},{"OBJECT_NAME":"ONEWEB-0624","OBJECT_ID":"2023-004AB","EPOCH":"2025-09-29T18:54:16.035840","MEAN_MOTION":13.12915959,"ECCENTRICITY":0.0001752,"INCLINATION":87.8924,"RA_OF_ASC_NODE":42.3709,"ARG_OF_PERICENTER":90.8114,"MEAN_ANOMALY":269.3216,"EPHEMERIS_TYPE":0,"CLASSIFICATION_TYPE":"U","NORAD_CAT_ID":55165,"ELEMENT_SET_NO":999,"REV_AT_EPOCH":13390,"BSTAR":-0.00037639,"MEAN_MOTION_DOT":-1.24e-6,"MEAN_MOTION_DDOT":0},{"OBJECT_NAME":"ONEWEB-0625","OBJECT_ID":"2023-004AC","EPOCH":"2025-09-28T20:43:30.459072","MEAN_MOTION":13.176498,"ECCENTRICITY":0.00014663,"INCLINATION":87.9065,"RA_OF_ASC_NODE":57.8575,"ARG_OF_PERICENTER":93.9591,"MEAN_ANOMALY":266.1708,"EPHEMERIS_TYPE":0,"CLASSIFICATION_TYPE":"U","NORAD_CAT_ID":55166,"ELEMENT_SET_NO":999,"REV_AT_EPOCH":13316,"BSTAR":0.00021497023,"MEAN_MOTION_DOT":9.6e-7,"MEAN_MOTION_DDOT":0},{"OBJECT_NAME":"ONEWEB-0626","OBJECT_ID":"2023-004AD","EPOCH":"2025-09-28T20:28:56.282016","MEAN_MOTION":13.17648847,"ECCENTRICITY":0.00018092,"INCLINATION":87.9067,"RA_OF_ASC_NODE":57.8585,"ARG_OF_PERICENTER":110.811,"MEAN_ANOMALY":249.3216,"EPHEMERIS_TYPE":0,"CLASSIFICATION_TYPE":"U","NORAD_CAT_ID":55167,"ELEMENT_SET_NO":999,"REV_AT_EPOCH":13316,"BSTAR":0.00022166701,"MEAN_MOTION_DOT":9.9e-7,"MEAN_MOTION_DDOT":0}]
